0 DELTA 1 DEB
1 12291U 78026EK  13281.73273197  .00000911  00000-0  46542-3 0  4802
2 12291 099.2003 179.7245 0055083 313.8228 109.8704 14.17531011674654
0 DELTA 1 DEB
1 12291U 78026EK  13283.22476737  .00001014  00000-0  51522-3 0  4813
2 12291 099.2003 181.2691 0055002 309.5600 163.9487 14.17537384674865
0 DELTA 1 DEB
1 12291U 78026EK  13286.19720001  .00000976  00000-0  49698-3 0  4837
2 12291 099.2004 184.3463 0054894 301.0001 212.8552 14.17544763675280
0 DELTA 1 DEB
1 12291U 78026EK  13287.31806456  .00001108  00000-0  56090-3 0  4844
2 12291 099.2004 185.5067 0054863 297.7802 172.8619 14.17547155675444
0 DELTA 1 DEB
1 12291U 78026EK  13289.16383855  .00001307  00000-0  65735-3 0  4850
2 12291 099.2001 187.4178 0054809 292.4841 232.2574 14.17554902675708
0 DELTA 1 DEB
1 12291U 78026EK  13290.22008022  .00001314  00000-0  66074-3 0  4865
2 12291 099.1999 188.5114 0054798 289.4447 222.5211 14.17557480675850
0 DELTA 1 DEB
1 12291U 78026EK  13291.34248868  .00001260  00000-0  63477-3 0  4878
2 12291 099.1997 189.6735 0054763 286.1902 190.4909 14.17561245676011
0 DELTA 1 DEB
1 12291U 78026EK  13292.54354317  .00001286  00000-0  64696-3 0  4881
2 12291 099.1996 190.9171 0054741 282.7293 199.8081 14.17565128676186
0 DELTA 1 DEB
1 12291U 78026EK  13293.73150455  .00001404  00000-0  70437-3 0  4893
2 12291 099.1995 192.1471 0054711 279.3374 142.2944 14.17568498676353
0 DELTA 1 DEB
1 12291U 78026EK  13295.29383025  .00001478  00000-0  74031-3 0  4904
2 12291 099.1996 193.7645 0054745 274.8097 195.3520 14.17574001676573
